0 DUBAISAT 1
1 35682U 09041B   26161.64501229  .00000679  00000-0  10814-3 0  9992
2 35682  98.0044 294.9749 0011756  92.2822 267.9733 14.75113282904138
0 OCEANSAT 2
1 35931U 09051A   26161.62285580  .00000043  00000-0  55190-4 0  9999
2 35931  98.2324 149.1291 0014750 256.0823 103.8704 13.99664567878418
0 WORLDVIEW 2
1 35946U 09055A   26161.55311867  .00000085  00000-0  42663-4 0  9996
2 35946  98.4736 235.0940 0003351 231.7572 128.3314 14.37897447874698
0 SMOS
1 36036U 09059A   26161.51794285  .00000224  00000-0  85426-4 0  9995
2 36036  98.4426 348.9507 0001326  89.2827 270.8513 14.39768994872493
0 YAOGAN 7
1 36110U 09069A   26161.58962684  .00000424  00000-0  65798-4 0  9998
2 36110  98.0081  47.4972 0025889  62.1124 298.2704 14.78003181888650
0 TANDEM X
1 36605U 10030A   26160.28753286  .00000776  00000-0  40127-4 0  9998
2 36605  97.4454 168.1075 0001902  90.0350 270.1102 15.19149708885449
0 CARTOSAT 2B
1 36795U 10035A   26161.64035231  .00001020  00000-0  14619-3 0  9996
2 36795  97.9957 212.2319 0010662 205.7507 154.3174 14.78654636858881
0 YAOGAN 10
1 36834U 10038A   26161.63093839  .00001250  00000-0  15165-3 0  9992
2 36834  97.8981 185.0876 0001622  88.5940  59.9550 14.85327689856238
0 SKYMED 4
1 37216U 10060A   26161.62517351  .00000413  00000-0  58471-4 0  9999
2 37216  97.8892 345.3206 0001437  80.9795 279.1581 14.82148734843594
0 RESOURCESAT 2
1 37387U 11015A   26161.61380491  .00000047  00000-0  41595-4 0  9993
2 37387  98.7644 229.1008 0010121 276.7258  83.2767 14.21605005785245
0 HAIYANG 2A
1 37781U 11043A   26161.55959332 -.00000003  00000-0  43261-4 0  9996
2 37781  99.3401 164.3829 0006118 103.6776 256.5055 13.74495294745746
0 RASAT
1 37791U 11044D   26161.57840557  .00000350  00000-0  69188-4 0  9998
2 37791  98.0568 253.0762 0019715 210.2477 273.6201 14.68160046792214
0 SRMSAT
1 37841U 11058D   26161.52450462  .00000356  00000-0  49378-4 0  9991
2 37841  19.9713  99.7947 0011923 130.6142  29.5560 14.11574150756872
0 PLEIADES 1
1 38012U 11076F   26161.61734189  .00000495  00000-0  11629-3 0  9994
2 38012  98.1973 236.8084 0001558  97.5190  10.3967 14.58567961771030
0 ZY 1
1 38038U 11079A   26161.61857561  .00000517  00000-0  18435-3 0  9992
2 38038  98.4071 229.0643 0005926 338.8478 150.8408 14.38210227758266
0 KOMPSAT 3
1 38338U 12025B   26161.60022204  .00000367  00000-0  82026-4 0  9995
2 38338  98.1174 119.1740 0006419 126.1568 234.0228 14.62200374750382
0 EXACTVIEW-1
1 38709U 12039C   26161.57031065  .00000087  00000-0  56823-4 0  9998
2 38709  98.9770 278.8113 0010809 185.2073 174.8995 14.24982639721767
0 SPOT 6
1 38755U 12047A   26161.61209997  .00000373  00000-0  90005-4 0  9992
2 38755  98.2119 228.9979 0001447  92.4140 267.7225 14.58559690732096
0 PLEIADES 1B
1 39019U 12068A   26161.63100543  .00000434  00000-0  10308-3 0  9993
2 39019  98.1943 236.7730 0001597  93.8451 266.2931 14.58557353719897
0 GOKTURK 2
1 39030U 12073A   26161.57073184  .00000196  00000-0  35647-4 0  9994
2 39030  97.6829 359.3340 0001822  59.9145 300.2245 14.75535175723530
0 LANDSAT 8
1 39084U 13008A   26161.56972022  .00000262  00000-0  68252-4 0  9992
2 39084  98.2302 231.7835 0001466  95.8801 264.2565 14.57114264696935
0 SARAL
1 39086U 13009A   26161.61648625  .00000083  00000-0  46573-4 0  9993
2 39086  98.5557 348.2671 0001067 343.6395  16.4755 14.32854299694661
0 GAOFEN 1
1 39150U 13018A   26161.62511252  .00000208  00000-0  37084-4 0  9997
2 39150  97.9094 233.8262 0015824 289.7619  70.1884 14.76528932707274
0 VNREDSAT 1
1 39160U 13021B   26161.59982956  .00000588  00000-0  11851-3 0  9995
2 39160  97.9084 215.2690 0001676  88.7516 271.3879 14.64850716699326
0 KOMPSAT 5
1 39227U 13042A   26161.64815087  .00001411  00000-0  10523-3 0  9999
2 39227  97.6219 348.4411 0004703 138.8258 221.3324 15.04474650702870
0 SKYSAT 1
1 39418U 13066C   26161.57744096  .00002335  00000-0  13551-3 0  9990
2 39418  97.3821 211.1850 0020690 341.5115  18.5362 15.12939177687485
0 DUBAISAT 2
1 39419U 13066D   26161.57731501  .00004446  00000-0  27599-3 0  9990
2 39419  97.4564 151.8950 0012737  60.4807 299.7691 15.10134892685395
0 GPM
1 39574U 14009C   26161.54007952  .00007895  00000-0  16863-3 0  9996
2 39574  64.9727 330.3870 0012110 270.7929  89.1824 15.45479111696786
0 SENTINEL 1A
1 39634U 14016A   26161.51035463  .00000288  00000-0  70740-4 0  9990
2 39634  98.1783 169.1406 0001436  80.9924 279.1438 14.59199013649045
0 KAZEOSAT 1
1 39731U 14024A   26161.63830265  .00000419  00000-0  14061-3 0  9992
2 39731  98.3203 234.2484 0001464  75.7406 284.3947 14.42078566637614
