OBJECT_NAME,OBJECT_ID,EPOCH,MEAN_MOTION,ECCENTRICITY,INCLINATION,RA_OF_ASC_NODE,ARG_OF_PERICENTER,MEAN_ANOMALY,EPHEMERIS_TYPE,CLASSIFICATION_TYPE,NORAD_CAT_ID,ELEMENT_SET_NO,REV_AT_EPOCH,BSTAR,MEAN_MOTION_DOT,MEAN_MOTION_DDOT
DUBAISAT-1,2009-041B,2026-06-10T15:28:49.061856,14.75113282,.00117555,98.0044,294.9749,92.2822,267.9733,0,U,35682,999,90413,.10814312E-3,.679E-5,0
OCEANSAT-2,2009-051A,2026-06-10T14:56:54.741120,13.99664567,.00147499,98.2324,149.1291,256.0823,103.8704,0,U,35931,999,87841,.55190039E-4,.43E-6,0
WORLDVIEW-2 (WV-2),2009-055A,2026-06-10T13:16:29.453088,14.37897447,.00033512,98.4736,235.0940,231.7572,128.3314,0,U,35946,999,87469,.42663349E-4,.85E-6,0
SMOS,2009-059A,2026-06-10T12:25:50.262240,14.39768994,.00013259,98.4426,348.9507,89.2827,270.8513,0,U,36036,999,87249,.85425857E-4,.224E-5,0
YAOGAN-7,2009-069A,2026-06-10T14:09:03.758976,14.78003181,.00258886,98.0081,47.4972,62.1124,298.2704,0,U,36110,999,88865,.65797534E-4,.424E-5,0
TANDEM-X,2010-030A,2026-06-09T06:54:02.839104,15.19149708,.00019024,97.4454,168.1075,90.0350,270.1102,0,U,36605,999,88544,.40127109E-4,.776E-5,0
CARTOSAT-2B,2010-035A,2026-06-10T15:22:06.439584,14.78654636,.00106623,97.9957,212.2319,205.7507,154.3174,0,U,36795,999,85888,.1461933E-3,.102E-4,0
YAOGAN-10,2010-038A,2026-06-10T15:08:33.076896,14.85327689,.00016218,97.8981,185.0876,88.5940,59.9550,0,U,36834,999,85623,.15164732E-3,.125E-4,0
COSMO-SKYMED 4,2010-060A,2026-06-10T15:00:14.991264,14.82148734,.0001437,97.8892,345.3206,80.9795,279.1581,0,U,37216,999,84359,.58471244E-4,.413E-5,0
RESOURCESAT-2,2011-015A,2026-06-10T14:43:52.744224,14.21605005,.0010121,98.7644,229.1008,276.7258,83.2767,0,U,37387,999,78524,.4159475E-4,.47E-6,0
HAIYANG-2A,2011-043A,2026-06-10T13:25:48.862848,13.74495294,.00061181,99.3401,164.3829,103.6776,256.5055,0,U,37781,999,74574,.43260756E-4,-.3E-7,0
RASAT,2011-044D,2026-06-10T13:52:54.241248,14.68160046,.00197145,98.0568,253.0762,210.2477,273.6201,0,U,37791,999,79221,.69187723E-4,.35E-5,0
SRMSAT,2011-058D,2026-06-10T12:35:17.199168,14.11574150,.00119228,19.9713,99.7947,130.6142,29.5560,0,U,37841,999,75687,.49378482E-4,.356E-5,0
PLEIADES 1A,2011-076F,2026-06-10T14:48:58.339296,14.58567961,.00015581,98.1973,236.8084,97.5190,10.3967,0,U,38012,999,77103,.11629208E-3,.495E-5,0
ZIYUAN 1-02C (ZY 1-02C),2011-079A,2026-06-10T14:50:44.932704,14.38210227,.00059263,98.4071,229.0643,338.8478,150.8408,0,U,38038,999,75826,.18434649E-3,.517E-5,0
ARIRANG-3 (KOMPSAT-3),2012-025B,2026-06-10T14:24:19.184256,14.62200374,.00064193,98.1174,119.1740,126.1568,234.0228,0,U,38338,999,75038,.82025827E-4,.367E-5,0
EXACTVIEW-1 (ADS-1B),2012-039C,2026-06-10T13:41:14.840160,14.24982639,.00108086,98.9770,278.8113,185.2073,174.8995,0,U,38709,999,72176,.56822753E-4,.87E-6,0
SPOT 6,2012-047A,2026-06-10T14:41:25.437408,14.58559690,.00014474,98.2119,228.9979,92.4140,267.7225,0,U,38755,999,73209,.90004982E-4,.373E-5,0
PLEIADES 1B,2012-068A,2026-06-10T15:08:38.869152,14.58557353,.0001597,98.1943,236.7730,93.8451,266.2931,0,U,39019,999,71989,.10308258E-3,.434E-5,0
GOKTURK 2,2012-073A,2026-06-10T13:41:51.230976,14.75535175,.00018224,97.6829,359.3340,59.9145,300.2245,0,U,39030,999,72353,.35646661E-4,.196E-5,0
LANDSAT 8,2013-008A,2026-06-10T13:40:23.827008,14.57114264,.00014656,98.2302,231.7835,95.8801,264.2565,0,U,39084,999,69693,.68251883E-4,.262E-5,0
SARAL,2013-009A,2026-06-10T14:47:44.412000,14.32854299,.00010665,98.5557,348.2671,343.6395,16.4755,0,U,39086,999,69466,.46573363E-4,.83E-6,0
GAOFEN-1,2013-018A,2026-06-10T15:00:09.721728,14.76528932,.00158241,97.9094,233.8262,289.7619,70.1884,0,U,39150,999,70727,.37083935E-4,.208E-5,0
VNREDSAT 1,2013-021B,2026-06-10T14:23:45.273984,14.64850716,.00016756,97.9084,215.2690,88.7516,271.3879,0,U,39160,999,69932,.11850898E-3,.588E-5,0
ARIRANG-5 (KOMPSAT-5),2013-042A,2026-06-10T15:33:20.235168,15.04474650,.00047031,97.6219,348.4411,138.8258,221.3324,0,U,39227,999,70287,.10523075E-3,.1411E-4,0
SKYSAT-A,2013-066C,2026-06-10T13:51:30.898944,15.12939177,.00206902,97.3821,211.1850,341.5115,18.5362,0,U,39418,999,68748,.13551029E-3,.2335E-4,0
DUBAISAT-2,2013-066D,2026-06-10T13:51:20.016864,15.10134892,.00127368,97.4564,151.8950,60.4807,299.7691,0,U,39419,999,68539,.27599087E-3,.4446E-4,0
GPM-CORE,2014-009C,2026-06-10T12:57:42.870528,15.45479111,.00121104,64.9727,330.3870,270.7929,89.1824,0,U,39574,999,69678,.16862957E-3,.7895E-4,0
SENTINEL-1A,2014-016A,2026-06-10T12:14:54.640032,14.59199013,.00014362,98.1783,169.1406,80.9924,279.1438,0,U,39634,999,64904,.70739944E-4,.288E-5,0
KAZEOSAT 1,2014-024A,2026-06-10T15:19:09.348960,14.42078566,.00014638,98.3203,234.2484,75.7406,284.3947,0,U,39731,999,63761,.14060573E-3,.419E-5,0
